STARLINK-31719          
1 59495U 24071M   26068.17238148  .00002788  00000+0  11079-3 0  9997
2 59495  42.9990 342.9151 0002138 231.8479 128.2180 15.27581616108126
GESAT GEN1              
1 62612U 25009D   26068.72662138  .00010041  00000+0  38326-3 0  9990
2 62612  97.4058 151.4598 0000888  98.3547 261.7793 15.26847505 63732
